{
  "type": "FeatureCollection",
  "features": [
    {
      "type": "Feature",
      "properties": {
        "norad_id": 40128,
        "name": "GSAT0201 (GALILEO 5)",
        "group": "gnss",
        "lat": -23.240032546844848,
        "lon": 122.36502556951265,
        "alt_km": 17730.329443113595,
        "timestamp": "2025-12-26T03:50:12.335995+00:00",
        "meta_object_name": "GSAT0201 (GALILEO 5)",
        "meta_object_id": "2014-050A",
        "meta_epoch": "2025-12-24T05:54:59.332320",
        "meta_mean_motion": 1.85519669,
        "meta_eccentricity": 0.16490328,
        "meta_inclination": 49.0634,
        "meta_ra_of_asc_node": 280.5946,
        "meta_arg_of_pericenter": 172.7103,
        "meta_mean_anomaly": 190.0774,
        "meta_ephemeris_type": 0,
        "meta_classification_type": "U",
        "meta_norad_cat_id": 40128,
        "meta_element_set_no": 999,
        "meta_rev_at_epoch": 7507,
        "meta_bstar": 0,
        "meta_mean_motion_dot": -3.7e-07,
        "meta_mean_motion_ddot": 0,
        "tle_line1": "1 40128U 14050A   25358.24652005 -.00000037  00000+0  00000+0 0  9991",
        "tle_line2": "2 40128  49.0634 280.5946 1649032 172.7103 190.0774  1.85519669 75070"
      },
      "geometry": {
        "type": "Point",
        "coordinates": [
          122.36502556951265,
          -23.240032546844848
        ]
      }
    },
    {
      "type": "Feature",
      "properties": {
        "norad_id": 40129,
        "name": "GSAT0202 (GALILEO 6)",
        "group": "gnss",
        "lat": 14.87430478468267,
        "lon": -67.10154441304478,
        "alt_km": 25564.212733329932,
        "timestamp": "2025-12-26T03:50:12.336006+00:00",
        "meta_object_name": "GSAT0202 (GALILEO 6)",
        "meta_object_id": "2014-050B",
        "meta_epoch": "2025-12-23T23:07:46.341984",
        "meta_mean_motion": 1.85520106,
        "meta_eccentricity": 0.16495716,
        "meta_inclination": 49.08,
        "meta_ra_of_asc_node": 279.6897,
        "meta_arg_of_pericenter": 173.4584,
        "meta_mean_anomaly": 189.053,
        "meta_ephemeris_type": 0,
        "meta_classification_type": "U",
        "meta_norad_cat_id": 40129,
        "meta_element_set_no": 999,
        "meta_rev_at_epoch": 7723,
        "meta_bstar": 0,
        "meta_mean_motion_dot": -3.5e-07,
        "meta_mean_motion_ddot": 0,
        "tle_line1": "1 40129U 14050B   25357.96373081 -.00000035  00000+0  00000+0 0  9992",
        "tle_line2": "2 40129  49.0800 279.6897 1649571 173.4584 189.0530  1.85520106 77235"
      },
      "geometry": {
        "type": "Point",
        "coordinates": [
          -67.10154441304478,
          14.87430478468267
        ]
      }
    },
    {
      "type": "Feature",
      "properties": {
        "norad_id": 40269,
        "name": "IRNSS-1C",
        "group": "gnss",
        "lat": 3.620311138880243,
        "lon": -124.2332873068288,
        "alt_km": 35845.96131583438,
        "timestamp": "2025-12-26T03:50:12.336018+00:00",
        "meta_object_name": "IRNSS-1C",
        "meta_object_id": "2014-061A",
        "meta_epoch": "2025-12-25T19:23:21.835968",
        "meta_mean_motion": 1.00273138,
        "meta_eccentricity": 0.0018116,
        "meta_inclination": 6.0752,
        "meta_ra_of_asc_node": 92.3596,
        "meta_arg_of_pericenter": 0.8311,
        "meta_mean_anomaly": 15.2345,
        "meta_ephemeris_type": 0,
        "meta_classification_type": "U",
        "meta_norad_cat_id": 40269,
        "meta_element_set_no": 999,
        "meta_rev_at_epoch": 4095,
        "meta_bstar": 0,
        "meta_mean_motion_dot": -1.42e-06,
        "meta_mean_motion_ddot": 0,
        "tle_line1": "1 40269U 14061A   25359.80789162 -.00000142  00000+0  00000+0 0  9994",
        "tle_line2": "2 40269   6.0752  92.3596 0018116   0.8311  15.2345  1.00273138 40950"
      },
      "geometry": {
        "type": "Point",
        "coordinates": [
          -124.2332873068288,
          3.620311138880243
        ]
      }
    },
    {
      "type": "Feature",
      "properties": {
        "norad_id": 40294,
        "name": "GPS BIIF-8  (PRN 03)",
        "group": "gnss",
        "lat": 5.101771807773374,
        "lon": -145.69949804672365,
        "alt_km": 20222.293021371355,
        "timestamp": "2025-12-26T03:50:12.336032+00:00",
        "meta_object_name": "GPS BIIF-8  (PRN 03)",
        "meta_object_id": "2014-068A",
        "meta_epoch": "2025-12-23T10:16:22.808064",
        "meta_mean_motion": 2.00565491,
        "meta_eccentricity": 0.00608386,
        "meta_inclination": 56.8656,
        "meta_ra_of_asc_node": 37.7327,
        "meta_arg_of_pericenter": 68.9718,
        "meta_mean_anomaly": 291.747,
        "meta_ephemeris_type": 0,
        "meta_classification_type": "U",
        "meta_norad_cat_id": 40294,
        "meta_element_set_no": 999,
        "meta_rev_at_epoch": 8168,
        "meta_bstar": 0,
        "meta_mean_motion_dot": -4.8e-07,
        "meta_mean_motion_ddot": 0,
        "tle_line1": "1 40294U 14068A   25357.42804176 -.00000048  00000+0  00000+0 0  9993",
        "tle_line2": "2 40294  56.8656  37.7327 0060838  68.9718 291.7470  2.00565491 81685"
      },
      "geometry": {
        "type": "Point",
        "coordinates": [
          -145.69949804672365,
          5.101771807773374
        ]
      }
    },
    {
      "type": "Feature",
      "properties": {
        "norad_id": 40315,
        "name": "COSMOS 2501 (702K)",
        "group": "gnss",
        "lat": 10.818339171529129,
        "lon": -158.1914753059187,
        "alt_km": 19179.23171394989,
        "timestamp": "2025-12-26T03:50:12.336043+00:00",
        "meta_object_name": "COSMOS 2501 (702K)",
        "meta_object_id": "2014-075A",
        "meta_epoch": "2025-12-25T04:55:56.926272",
        "meta_mean_motion": 2.13101331,
        "meta_eccentricity": 0.00201021,
        "meta_inclination": 63.6163,
        "meta_ra_of_asc_node": 196.393,
        "meta_arg_of_pericenter": 203.9317,
        "meta_mean_anomaly": 156.0272,
        "meta_ephemeris_type": 0,
        "meta_classification_type": "U",
        "meta_norad_cat_id": 40315,
        "meta_element_set_no": 999,
        "meta_rev_at_epoch": 8614,
        "meta_bstar": 0,
        "meta_mean_motion_dot": 1.04e-06,
        "meta_mean_motion_ddot": 0,
        "tle_line1": "1 40315U 14075A   25359.20551998  .00000104  00000+0  00000+0 0  9996",
        "tle_line2": "2 40315  63.6163 196.3930 0020102 203.9317 156.0272  2.13101331 86148"
      },
      "geometry": {
        "type": "Point",
        "coordinates": [
          -158.1914753059187,
          10.818339171529129
        ]
      }
    },
    {
      "type": "Feature",
      "properties": {
        "norad_id": 40534,
        "name": "GPS BIIF-9  (PRN 26)",
        "group": "gnss",
        "lat": 52.10143555223285,
        "lon": -74.54030990197633,
        "alt_km": 19960.738349590163,
        "timestamp": "2025-12-26T03:50:12.336054+00:00",
        "meta_object_name": "GPS BIIF-9  (PRN 26)",
        "meta_object_id": "2015-013A",
        "meta_epoch": "2025-12-25T01:17:18.655296",
        "meta_mean_motion": 2.00561796,
        "meta_eccentricity": 0.0107504,
        "meta_inclination": 53.1961,
        "meta_ra_of_asc_node": 211.3802,
        "meta_arg_of_pericenter": 38.7737,
        "meta_mean_anomaly": 322.0645,
        "meta_ephemeris_type": 0,
        "meta_classification_type": "U",
        "meta_norad_cat_id": 40534,
        "meta_element_set_no": 999,
        "meta_rev_at_epoch": 7833,
        "meta_bstar": 0,
        "meta_mean_motion_dot": 7.9e-07,
        "meta_mean_motion_ddot": 0,
        "tle_line1": "1 40534U 15013A   25359.05368814  .00000079  00000+0  00000+0 0  9999",
        "tle_line2": "2 40534  53.1961 211.3802 0107504  38.7737 322.0645  2.00561796 78331"
      },
      "geometry": {
        "type": "Point",
        "coordinates": [
          -74.54030990197633,
          52.10143555223285
        ]
      }
    },
    {
      "type": "Feature",
      "properties": {
        "norad_id": 40544,
        "name": "GSAT0203 (GALILEO 7)",
        "group": "gnss",
        "lat": -5.413696718462593,
        "lon": -17.248158501403932,
        "alt_km": 23218.981911334813,
        "timestamp": "2025-12-26T03:50:12.336068+00:00",
        "meta_object_name": "GSAT0203 (GALILEO 7)",
        "meta_object_id": "2015-017A",
        "meta_epoch": "2025-12-24T23:56:01.378752",
        "meta_mean_motion": 1.70475851,
        "meta_eccentricity": 0.000645,
        "meta_inclination": 56.8433,
        "meta_ra_of_asc_node": 346.3459,
        "meta_arg_of_pericenter": 275.4973,
        "meta_mean_anomaly": 84.4372,
        "meta_ephemeris_type": 0,
        "meta_classification_type": "U",
        "meta_norad_cat_id": 40544,
        "meta_element_set_no": 999,
        "meta_rev_at_epoch": 6623,
        "meta_bstar": 0,
        "meta_mean_motion_dot": -6.1e-07,
        "meta_mean_motion_ddot": 0,
        "tle_line1": "1 40544U 15017A   25358.99723818 -.00000061  00000+0  00000+0 0  9997",
        "tle_line2": "2 40544  56.8433 346.3459 0006450 275.4973  84.4372  1.70475851 66237"
      },
      "geometry": {
        "type": "Point",
        "coordinates": [
          -17.248158501403932,
          -5.413696718462593
        ]
      }
    }
  ]
}